{"type": "FeatureCollection", "features": [ {"type": "Feature", "properties": {"norad_id": 35022, "name": "COSMOS 2251 DEB", "group": "cosmos-2251-debris", "lat": -42.514085291107115, "lon": -67.93584509982622, "alt_km": 729.1215082961289, "timestamp": "2025-12-20T09:36:02.044956+00:00", "meta": {"OBJECT_NAME": "COSMOS 2251 DEB", "OBJECT_ID": "1993-036AGK", "EPOCH": "2025-12-15T14:45:27.251136", "MEAN_MOTION": 14.60846809, "ECCENTRICITY": 0.00465822, "INCLINATION": 74.027, "RA_OF_ASC_NODE": 316.4327, "ARG_OF_PERICENTER": 155.4398, "MEAN_ANOMALY": 204.9001, "EPHEMERIS_TYPE": 0, "CLASSIFICATION_TYPE": "U", "NORAD_CAT_ID": 35022, "ELEMENT_SET_NO": 999, "REV_AT_EPOCH": 59185, "BSTAR": 0.00033959453, "MEAN_MOTION_DOT": 1.655e-05, "MEAN_MOTION_DDOT": 0}, "tle": {"line1": "1 35022U 93036AGK 25349.61489874  .00001655  00000+0  33959-3 0  9991", "line2": "2 35022  74.0270 316.4327 0046582 155.4398 204.9001 14.60846809591850"}}, "geometry": {"type": "Point", "coordinates": [-67.93584509982622, -42.514085291107115]}}, {"type": "Feature", "properties": {"norad_id": 35023, "name": "COSMOS 2251 DEB", "group": "cosmos-2251-debris", "lat": -2.586860026295703, "lon": -163.6056034667696, "alt_km": 581.7541071381402, "timestamp": "2025-12-20T09:36:02.044967+00:00", "meta": {"OBJECT_NAME": "COSMOS 2251 DEB", "OBJECT_ID": "1993-036AGL", "EPOCH": "2025-12-20T00:39:13.692384", "MEAN_MOTION": 14.95306046, "ECCENTRICITY": 0.0033752, "INCLINATION": 74.0362, "RA_OF_ASC_NODE": 197.8872, "ARG_OF_PERICENTER": 274.5878, "MEAN_ANOMALY": 236.5802, "EPHEMERIS_TYPE": 0, "CLASSIFICATION_TYPE": "U", "NORAD_CAT_ID": 35023, "ELEMENT_SET_NO": 999, "REV_AT_EPOCH": 88388, "BSTAR": 0.00088318, "MEAN_MOTION_DOT": 9.819e-05, "MEAN_MOTION_DDOT": 0}, "tle": {"line1": "1 35023U 93036AGL 25354.02724181  .00009819  00000+0  88318-3 0  9995", "line2": "2 35023  74.0362 197.8872 0033752 274.5878 236.5802 14.95306046883889"}}, "geometry": {"type": "Point", "coordinates": [-163.6056034667696, -2.586860026295703]}}, {"type": "Feature", "properties": {"norad_id": 35025, "name": "COSMOS 2251 DEB", "group": "cosmos-2251-debris", "lat": 7.874902564417908, "lon": -134.3636737253776, "alt_km": 704.3952930158903, "timestamp": "2025-12-20T09:36:02.044977+00:00", "meta": {"OBJECT_NAME": "COSMOS 2251 DEB", "OBJECT_ID": "1993-036AGN", "EPOCH": "2025-12-19T21:24:22.873824", "MEAN_MOTION": 14.72741051, "ECCENTRICITY": 0.00855, "INCLINATION": 73.9383, "RA_OF_ASC_NODE": 48.9151, "ARG_OF_PERICENTER": 320.2115, "MEAN_ANOMALY": 39.2806, "EPHEMERIS_TYPE": 0, "CLASSIFICATION_TYPE": "U", "NORAD_CAT_ID": 35025, "ELEMENT_SET_NO": 999, "REV_AT_EPOCH": 88748, "BSTAR": 0.00026574, "MEAN_MOTION_DOT": 1.76e-05, "MEAN_MOTION_DDOT": 0}, "tle": {"line1": "1 35025U 93036AGN 25353.89193141  .00001760  00000+0  26574-3 0  9990", "line2": "2 35025  73.9383  48.9151 0085500 320.2115  39.2806 14.72741051887485"}}, "geometry": {"type": "Point", "coordinates": [-134.3636737253776, 7.874902564417908]}}, {"type": "Feature", "properties": {"norad_id": 35026, "name": "COSMOS 2251 DEB", "group": "cosmos-2251-debris", "lat": -52.88542288081769, "lon": 146.55355782952796, "alt_km": 778.9158801089525, "timestamp": "2025-12-20T09:36:02.044987+00:00", "meta": {"OBJECT_NAME": "COSMOS 2251 DEB", "OBJECT_ID": "1993-036AGP", "EPOCH": "2025-12-18T03:45:00.139104", "MEAN_MOTION": 14.53626797, "ECCENTRICITY": 0.0082422, "INCLINATION": 74.047, "RA_OF_ASC_NODE": 308.5764, "ARG_OF_PERICENTER": 60.5026, "MEAN_ANOMALY": 318.4835, "EPHEMERIS_TYPE": 0, "CLASSIFICATION_TYPE": "U", "NORAD_CAT_ID": 35026, "ELEMENT_SET_NO": 999, "REV_AT_EPOCH": 88222, "BSTAR": 6.097601e-05, "MEAN_MOTION_DOT": 2.37e-06, "MEAN_MOTION_DDOT": 0}, "tle": {"line1": "1 35026U 93036AGP 25352.15625161  .00000237  00000+0  60976-4 0  9994", "line2": "2 35026  74.0470 308.5764 0082422  60.5026 318.4835 14.53626797882224"}}, "geometry": {"type": "Point", "coordinates": [146.55355782952796, -52.88542288081769]}}, {"type": "Feature", "properties": {"norad_id": 35028, "name": "COSMOS 2251 DEB", "group": "cosmos-2251-debris", "lat": 64.90228837448345, "lon": -65.88839305990632, "alt_km": 654.0578408710053, "timestamp": "2025-12-20T09:36:02.044997+00:00", "meta": {"OBJECT_NAME": "COSMOS 2251 DEB", "OBJECT_ID": "1993-036AGR", "EPOCH": "2025-12-18T03:11:52.081152", "MEAN_MOTION": 14.56575396, "ECCENTRICITY": 0.00826724, "INCLINATION": 74.0383, "RA_OF_ASC_NODE": 260.7455, "ARG_OF_PERICENTER": 32.9493, "MEAN_ANOMALY": 35.4382, "EPHEMERIS_TYPE": 0, "CLASSIFICATION_TYPE": "U", "NORAD_CAT_ID": 35028, "ELEMENT_SET_NO": 999, "REV_AT_EPOCH": 88364, "BSTAR": 8.3392474e-05, "MEAN_MOTION_DOT": 3.58e-06, "MEAN_MOTION_DDOT": 0}, "tle": {"line1": "1 35028U 93036AGR 25352.13324168  .00000358  00000+0  83392-4 0  9998", "line2": "2 35028  74.0383 260.7455 0082672  32.9493  35.4382 14.56575396883644"}}, "geometry": {"type": "Point", "coordinates": [-65.88839305990632, 64.90228837448345]}}, {"type": "Feature", "properties": {"norad_id": 35031, "name": "COSMOS 2251 DEB", "group": "cosmos-2251-debris", "lat": -16.852902429292026, "lon": 70.12563235085688, "alt_km": 779.0009042485772, "timestamp": "2025-12-20T09:36:02.045007+00:00", "meta": {"OBJECT_NAME": "COSMOS 2251 DEB", "OBJECT_ID": "1993-036AGU", "EPOCH": "2025-12-17T23:55:41.225088", "MEAN_MOTION": 14.38299529, "ECCENTRICITY": 0.00190755, "INCLINATION": 74.0382, "RA_OF_ASC_NODE": 249.5774, "ARG_OF_PERICENTER": 342.0186, "MEAN_ANOMALY": 18.0291, "EPHEMERIS_TYPE": 0, "CLASSIFICATION_TYPE": "U", "NORAD_CAT_ID": 35031, "ELEMENT_SET_NO": 999, "REV_AT_EPOCH": 65359, "BSTAR": 0.00013785455, "MEAN_MOTION_DOT": 3.94e-06, "MEAN_MOTION_DDOT": 0}, "tle": {"line1": "1 35031U 93036AGU 25351.99700492  .00000394  00000+0  13785-3 0  9991", "line2": "2 35031  74.0382 249.5774 0019075 342.0186  18.0291 14.38299529653593"}}, "geometry": {"type": "Point", "coordinates": [70.12563235085688, -16.852902429292026]}}, {"type": "Feature", "properties": {"norad_id": 35032, "name": "COSMOS 2251 DEB", "group": "cosmos-2251-debris", "lat": -73.6632138583462, "lon": -106.17599521640658, "alt_km": 683.5122677389045, "timestamp": "2025-12-20T09:36:02.045017+00:00", "meta": {"OBJECT_NAME": "COSMOS 2251 DEB", "OBJECT_ID": "1993-036AGV", "EPOCH": "2025-12-19T18:23:09.888288", "MEAN_MOTION": 14.58776682, "ECCENTRICITY": 0.00678914, "INCLINATION": 73.8514, "RA_OF_ASC_NODE": 353.7437, "ARG_OF_PERICENTER": 203.8802, "MEAN_ANOMALY": 335.1362, "EPHEMERIS_TYPE": 0, "CLASSIFICATION_TYPE": "U", "NORAD_CAT_ID": 35032, "ELEMENT_SET_NO": 999, "REV_AT_EPOCH": 87776, "BSTAR": 0.00054981647, "MEAN_MOTION_DOT": 2.62e-05, "MEAN_MOTION_DDOT": 0}, "tle": {"line1": "1 35032U 93036AGV 25353.76608667  .00002620  00000+0  54982-3 0  9998", "line2": "2 35032  73.8514 353.7437 0067891 203.8802 335.1362 14.58776682877761"}}, "geometry": {"type": "Point", "coordinates": [-106.17599521640658, -73.6632138583462]}}, {"type": "Feature", "properties": {"norad_id": 35033, "name": "COSMOS 2251 DEB", "group": "cosmos-2251-debris", "lat": 68.29722139187517, "lon": -151.8046827066042, "alt_km": 725.5178223521252, "timestamp": "2025-12-20T09:36:02.045028+00:00", "meta": {"OBJECT_NAME": "COSMOS 2251 DEB", "OBJECT_ID": "1993-036AGW", "EPOCH": "2025-12-19T05:07:27.625152", "MEAN_MOTION": 14.50959586, "ECCENTRICITY": 0.001448, "INCLINATION": 74.0251, "RA_OF_ASC_NODE": 164.3945, "ARG_OF_PERICENTER": 270.8601, "MEAN_ANOMALY": 89.0901, "EPHEMERIS_TYPE": 0, "CLASSIFICATION_TYPE": "U", "NORAD_CAT_ID": 35033, "ELEMENT_SET_NO": 999, "REV_AT_EPOCH": 66021, "BSTAR": 0.00048139, "MEAN_MOTION_DOT": 1.877e-05, "MEAN_MOTION_DDOT": 0}, "tle": {"line1": "1 35033U 93036AGW 25353.21351418  .00001877  00000+0  48139-3 0  9998", "line2": "2 35033  74.0251 164.3945 0014480 270.8601  89.0901 14.50959586660212"}}, "geometry": {"type": "Point", "coordinates": [-151.8046827066042, 68.29722139187517]}}, {"type": "Feature", "properties": {"norad_id": 35038, "name": "COSMOS 2251 DEB", "group": "cosmos-2251-debris", "lat": 48.76037768456792, "lon": 47.79196787442209, "alt_km": 740.7726850833005, "timestamp": "2025-12-20T09:36:02.045038+00:00", "meta": {"OBJECT_NAME": "COSMOS 2251 DEB", "OBJECT_ID": "1993-036AHB", "EPOCH": "2025-12-16T02:43:57.942048", "MEAN_MOTION": 14.25166694, "ECCENTRICITY": 0.01140711, "INCLINATION": 74.1077, "RA_OF_ASC_NODE": 36.5236, "ARG_OF_PERICENTER": 19.3791, "MEAN_ANOMALY": 9.3469, "EPHEMERIS_TYPE": 0, "CLASSIFICATION_TYPE": "U", "NORAD_CAT_ID": 35038, "ELEMENT_SET_NO": 999, "REV_AT_EPOCH": 85617, "BSTAR": 0.00096319549, "MEAN_MOTION_DOT": 2.397e-05, "MEAN_MOTION_DDOT": 0}, "tle": {"line1": "1 35038U 93036AHB 25350.11386507  .00002397  00000+0  96320-3 0  9999", "line2": "2 35038  74.1077  36.5236 0114071  19.3791   9.3469 14.25166694856178"}}, "geometry": {"type": "Point", "coordinates": [47.79196787442209, 48.76037768456792]}}, {"type": "Feature", "properties": {"norad_id": 35043, "name": "COSMOS 2251 DEB", "group": "cosmos-2251-debris", "lat": -58.79183654380264, "lon": -121.15544132240528, "alt_km": 577.3560751486784, "timestamp": "2025-12-20T09:36:02.045048+00:00", "meta": {"OBJECT_NAME": "COSMOS 2251 DEB", "OBJECT_ID": "1993-036AHG", "EPOCH": "2025-12-18T09:22:03.578880", "MEAN_MOTION": 14.77234349, "ECCENTRICITY": 0.00960967, "INCLINATION": 73.9519, "RA_OF_ASC_NODE": 34.4369, "ARG_OF_PERICENTER": 242.9214, "MEAN_ANOMALY": 116.2132, "EPHEMERIS_TYPE": 0, "CLASSIFICATION_TYPE": "U", "NORAD_CAT_ID": 35043, "ELEMENT_SET_NO": 999, "REV_AT_EPOCH": 67502, "BSTAR": 0.0030540152, "MEAN_MOTION_DOT": 0.00023411, "MEAN_MOTION_DDOT": 0}, "tle": {"line1": "1 35043U 93036AHG 25352.39031920  .00023411  00000+0  30540-2 0  9994", "line2": "2 35043  73.9519  34.4369 0096096 242.9214 116.2132 14.77234349675024"}}, "geometry": {"type": "Point", "coordinates": [-121.15544132240528, -58.79183654380264]}}]}